NORAD_CAT_ID,OBJECT_NAME,OBJECT_TYPE,EPOCH,MEAN_MOTION,ECCENTRICITY,INCLINATION,RA_OF_ASC_NODE,ARG_OF_PERICENTER,MEAN_ANOMALY,BSTAR,MEAN_MOTION_DOT,MEAN_MOTION_DDOT,TLE_LINE0,TLE_LINE1,TLE_LINE2,SEMIMAJOR_AXIS,PERIOD,APOGEE,PERIGEE,DECAYED
52489.0,STARLINK-3923,PAYLOAD,2023-04-22 06:21:21,15.08842073,0.0001137,53.2163,103.6357,93.8766,266.2356,0.00011909,1.608e-05,0.0,0 STARLINK-3923,1 52489U 22049AQ  23112.26482662  .00001608  00000-0  11909-3 0  9998,2 52489  53.2163 103.6357 0001137  93.8766 266.2356 15.08842073 53372,6917.874,95.437,540.526,538.952,0.0
52489.0,STARLINK-3923,PAYLOAD,2023-04-22 15:53:39,15.08843482,0.0001037,53.2166,101.8518,91.279,268.8321,7.0135e-05,8.29e-06,0.0,0 STARLINK-3923,1 52489U 22049AQ  23112.66226621  .00000829  00000-0  70135-4 0  9994,2 52489  53.2166 101.8518 0001037  91.2790 268.8321 15.08843482 53591,6917.87,95.437,540.452,539.017,0.0
52489.0,STARLINK-3923,PAYLOAD,2023-04-23 07:47:31,15.08837678,0.000104,53.2161,98.8782,98.4984,261.6126,5.4939e-05,5.87e-06,0.0,0 STARLINK-3923,1 52489U 22049AQ  23113.32467202  .00000587  00000-0  54939-4 0  9995,2 52489  53.2161  98.8782 0001040  98.4984 261.6126 15.08837678 53697,6917.887,95.438,540.472,539.033,0.0
52489.0,STARLINK-3923,PAYLOAD,2023-04-24 09:13:40,15.08855428,0.00012,53.2166,94.1195,95.978,264.1349,0.00021513,3.139e-05,0.0,0 STARLINK-3923,1 52489U 22049AQ  23114.38449970  .00003139  00000-0  21513-3 0  9991,2 52489  53.2166  94.1195 0001200  95.9780 264.1349 15.08855428 53691,6917.833,95.437,540.528,538.868,0.0
52489.0,STARLINK-3923,PAYLOAD,2023-04-25 02:42:56,15.08836461,0.0001616,53.2178,90.847,81.976,278.1416,5.2843e-05,5.53e-06,0.0,0 STARLINK-3923,1 52489U 22049AQ  23115.11314944  .00000553  00000-0  52843-4 0  9993,2 52489  53.2178  90.8470 0001616  81.9760 278.1416 15.08836461 53963,6917.891,95.438,540.874,538.638,0.0
52489.0,STARLINK-3923,PAYLOAD,2023-04-25 07:29:05,15.0883474,0.0001388,53.2187,89.9545,88.8017,271.3134,8.7971e-05,1.112e-05,0.0,0 STARLINK-3923,1 52489U 22049AQ  23115.31187104  .00001112  00000-0  87971-4 0  9993,2 52489  53.2187  89.9545 0001388  88.8017 271.3134 15.08834740 53838,6917.896,95.438,540.722,538.801,0.0
52489.0,STARLINK-3923,PAYLOAD,2023-04-26 07:19:54,15.08821707,0.0001349,53.2184,85.4946,90.0989,270.0158,-4.9634e-05,-1.077e-05,0.0,0 STARLINK-3923,1 52489U 22049AQ  23116.30548955 -.00001077  00000-0 -49634-4 0  9994,2 52489  53.2184  85.4946 0001349  90.0989 270.0158 15.08821707 53988,6917.936,95.439,540.735,538.868,0.0
52489.0,STARLINK-3923,PAYLOAD,2023-04-26 15:16:49,15.08825702,0.0001395,53.2187,84.0085,90.3313,269.7839,-1.3431e-05,-5.02e-06,0.0,0 STARLINK-3923,1 52489U 22049AQ  23116.63668943 -.00000502  00000-0 -13431-4 0  9998,2 52489  53.2187  84.0085 0001395  90.3313 269.7839 15.08825702 54032,6917.924,95.438,540.754,538.824,0.0
52489.0,STARLINK-3923,PAYLOAD,2023-04-27 03:59:54,15.08835757,0.0001281,53.2178,81.6331,74.8479,285.2655,6.2194e-05,7.02e-06,0.0,0 STARLINK-3923,1 52489U 22049AQ  23117.16660460  .00000702  00000-0  62194-4 0  9993,2 52489  53.2178  81.6331 0001281  74.8479 285.2655 15.08835757 54279,6917.893,95.438,540.645,538.872,0.0
52489.0,STARLINK-3923,PAYLOAD,2023-04-27 07:10:40,15.08839232,0.0001313,53.2178,81.0365,75.0595,285.0542,6.9872e-05,8.24e-06,0.0,0 STARLINK-3923,1 52489U 22049AQ  23117.29908276  .00000824  00000-0  69872-4 0  9992,2 52489  53.2178  81.0365 0001313  75.0595 285.0542 15.08839232 54138,6917.883,95.438,540.656,538.839,0.0
52489.0,STARLINK-3923,PAYLOAD,2023-04-28 03:50:40,15.08854461,0.0001349,53.2181,77.1707,78.5834,281.5309,0.00032151,4.835e-05,0.0,0 STARLINK-3923,1 52489U 22049AQ  23118.16018764  .00004835  00000-0  32151-3 0  9998,2 52489  53.2181  77.1707 0001349  78.5834 281.5309 15.08854461 54426,6917.836,95.437,540.634,538.768,0.0
52489.0,STARLINK-3923,PAYLOAD,2023-04-28 07:01:26,15.08858393,0.0001359,53.2181,76.5758,78.6921,281.4224,0.00035841,5.424e-05,0.0,0 STARLINK-3923,1 52489U 22049AQ  23118.29266482  .00005424  00000-0  35841-3 0  9998,2 52489  53.2181  76.5758 0001359  78.6921 281.4224 15.08858393 54281,6917.824,95.436,540.629,538.749,0.0
52489.0,STARLINK-3923,PAYLOAD,2023-04-28 21:19:56,15.08838238,0.0001286,53.219,73.8997,82.1218,277.9921,4.0215e-05,3.52e-06,0.0,0 STARLINK-3923,1 52489U 22049AQ  23118.88884599  .00000352  00000-0  40215-4 0  9995,2 52489  53.2190  73.8997 0001286  82.1218 277.9921 15.08838238 54532,6917.886,95.438,540.64,538.861,0.0
52489.0,STARLINK-3923,PAYLOAD,2023-04-29 05:16:51,15.08848098,0.0001216,53.2174,72.4136,86.1275,273.9856,2.9596e-07,-2.83e-06,0.0,0 STARLINK-3923,1 52489U 22049AQ  23119.22003698 -.00000283  00000-0  29596-6 0  9992,2 52489  53.2174  72.4136 0001216  86.1275 273.9856 15.08848098 54587,6917.856,95.437,540.562,538.879,0.0
52489.0,STARLINK-3923,PAYLOAD,2023-04-29 06:52:14,15.08849471,0.0001264,53.2173,72.1153,87.5006,272.613,1.4417e-06,-2.65e-06,0.0,0 STARLINK-3923,1 52489U 22049AQ  23119.28627474 -.00000265  00000-0  14417-5 0  9997,2 52489  53.2173  72.1153 0001264  87.5006 272.6130 15.08849471 54433,6917.851,95.437,540.591,538.842,0.0
52489.0,STARLINK-3923,PAYLOAD,2023-04-30 06:43:00,15.08849343,0.0001256,53.2169,67.654,87.4663,272.6473,9.5276e-05,1.229e-05,0.0,0 STARLINK-3923,1 52489U 22049AQ  23120.27987250  .00001229  00000-0  95276-4 0  9990,2 52489  53.2169  67.6540 0001256  87.4663 272.6473 15.08849343 54748,6917.852,95.437,540.586,538.848,0.0
52489.0,STARLINK-3923,PAYLOAD,2023-05-01 04:58:25,15.08834198,0.0001084,53.2179,63.4932,90.1797,269.932,5.1322e-05,5.29e-06,0.0,0 STARLINK-3923,1 52489U 22049AQ  23121.20724357  .00000529  00000-0  51322-4 0  9997,2 52489  53.2179  63.4932 0001084  90.1797 269.9320 15.08834198 54883,6917.898,95.438,540.513,539.013,0.0
52489.0,STARLINK-3923,PAYLOAD,2023-05-01 06:33:49,15.08831817,0.0001245,53.218,63.1941,90.529,269.5845,5.1734e-06,-2.06e-06,0.0,0 STARLINK-3923,1 52489U 22049AQ  23121.27348511 -.00000206  00000-0  51734-5 0  9999,2 52489  53.2180  63.1941 0001245  90.5290 269.5845 15.08831817 54730,6917.905,95.438,540.632,538.909,0.0
52489.0,STARLINK-3923,PAYLOAD,2023-05-02 04:49:12,15.08850078,0.0001288,53.2187,59.0319,99.7947,260.3191,0.00023914,3.521e-05,0.0,0 STARLINK-3923,1 52489U 22049AQ  23122.20083827  .00003521  00000-0  23914-3 0  9998,2 52489  53.2187  59.0319 0001288  99.7947 260.3191 15.08850078 55034,6917.85,95.437,540.606,538.824,0.0
52489.0,STARLINK-3923,PAYLOAD,2023-05-02 19:07:41,15.08842747,0.0001375,53.2187,56.3561,88.4737,271.6413,0.00023997,3.534e-05,0.0,0 STARLINK-3923,1 52489U 22049AQ  23122.79700294  .00003534  00000-0  23997-3 0  9991,2 52489  53.2187  56.3561 0001375  88.4737 271.6413 15.08842747 55128,6917.872,95.437,540.688,538.786,0.0
52489.0,STARLINK-3923,PAYLOAD,2023-05-02 20:43:04,15.08842074,0.000138,53.219,56.0582,87.4163,272.6987,0.00018185,2.608e-05,0.0,0 STARLINK-3923,1 52489U 22049AQ  23122.86324318  .00002608  00000-0  18185-3 0  9992,2 52489  53.2190  56.0582 0001380  87.4163 272.6987 15.08842074 54972,6917.874,95.437,540.694,538.784,0.0
52489.0,STARLINK-3923,PAYLOAD,2023-05-03 04:39:59,15.08844375,0.0001342,53.2187,54.5711,85.4084,274.7062,0.00016767,2.382e-05,0.0,0 STARLINK-3923,1 52489U 22049AQ  23123.19444119  .00002382  00000-0  16767-3 0  9994,2 52489  53.2187  54.5711 0001342  85.4084 274.7062 15.08844375 55023,6917.867,95.437,540.66,538.804,0.0
52489.0,STARLINK-3923,PAYLOAD,2023-05-03 18:58:28,15.08839349,0.0001291,53.2187,51.895,98.3554,261.7584,5.7925e-05,6.34e-06,0.0,0 STARLINK-3923,1 52489U 22049AQ  23123.79060583  .00000634  00000-0  57925-4 0  9999,2 52489  53.2187  51.8950 0001291  98.3554 261.7584 15.08839349 55273,6917.882,95.438,540.64,538.854,0.0
52489.0,STARLINK-3923,PAYLOAD,2023-05-04 04:30:46,15.08848825,0.0001253,53.2186,50.1109,93.1001,267.0134,1.6039e-05,-3.3e-07,0.0,0 STARLINK-3923,1 52489U 22049AQ  23124.18803965 -.00000033  00000-0  16039-4 0  9997,2 52489  53.2186  50.1109 0001253  93.1001 267.0134 15.08848825 55334,6917.853,95.437,540.585,538.852,0.0
52489.0,STARLINK-3923,PAYLOAD,2023-05-04 18:49:15,15.08842114,0.0001217,53.2182,47.4347,86.9384,273.1747,3.5985e-05,2.85e-06,0.0,0 STARLINK-3923,1 52489U 22049AQ  23124.78420293  .00000285  00000-0  35985-4 0  9991,2 52489  53.2182  47.4347 0001217  86.9384 273.1747 15.08842114 55262,6917.874,95.437,540.581,538.897,0.0
52489.0,STARLINK-3923,PAYLOAD,2023-05-05 04:21:33,15.08842883,8.89e-05,53.2177,45.6511,74.3476,285.7614,0.00010927,1.452e-05,0.0,0 STARLINK-3923,1 52489U 22049AQ  23125.18163978  .00001452  00000-0  10927-3 0  9995,2 52489  53.2177  45.6511 0000889  74.3476 285.7614 15.08842883 55485,6917.872,95.437,540.352,539.122,0.0
52489.0,STARLINK-3923,PAYLOAD,2023-05-06 01:01:34,15.08839958,0.0001059,53.2181,41.7862,81.6904,278.4208,5.4445e-05,5.79e-06,0.0,0 STARLINK-3923,1 52489U 22049AQ  23126.04276434  .00000579  00000-0  54445-4 0  9996,2 52489  53.2181  41.7862 0001059  81.6904 278.4208 15.08839958 55615,6917.881,95.438,540.478,539.013,0.0
52489.0,STARLINK-3923,PAYLOAD,2023-05-06 05:47:43,15.08845971,0.0001098,53.2187,40.8941,81.7578,278.3538,0.00010035,1.31e-05,0.0,0 STARLINK-3923,1 52489U 22049AQ  23126.24148038  .00001310  00000-0  10035-3 0  9996,2 52489  53.2187  40.8941 0001098  81.7578 278.3538 15.08845971 55482,6917.862,95.437,540.487,538.968,0.0
52489.0,STARLINK-3923,PAYLOAD,2023-05-07 04:03:07,15.08856127,9.85e-05,53.2179,36.7308,88.0581,272.0524,0.00028825,4.305e-05,0.0,0 STARLINK-3923,1 52489U 22049AQ  23127.16883490  .00004305  00000-0  28825-3 0  9999,2 52489  53.2179  36.7308 0000985  88.0581 272.0524 15.08856127 55786,6917.831,95.437,540.378,539.015,0.0
52489.0,STARLINK-3923,PAYLOAD,2023-05-07 21:32:23,15.0882955,0.0001155,53.2184,33.463,78.7044,281.4078,-0.00011097,-2.053e-05,0.0,0 STARLINK-3923,1 52489U 22049AQ  23127.89749228 -.00002053  00000-0 -11097-3 0  9992,2 52489  53.2184  33.4630 0001155  78.7044 281.4078 15.08829550 55737,6917.912,95.438,540.576,538.978,0.0
